ONEWEB-0634             
1 56075U 23043AF  24196.83552550 -.00000030  00000+0 -11293-3 0  9993
2 56075  87.9024  38.9825 0001416  88.2082 271.9211 13.15548959 64058
ONEWEB-0635             
1 56076U 23043AG  24196.83077181 -.00000056  00000+0 -18225-3 0  9996
2 56076  87.9020  39.0375 0002217  85.6252 274.5132 13.15547060 64083
ONEWEB-0636             
1 56077U 23043AH  24196.82285471 -.00000030  00000+0 -11343-3 0  9995
2 56077  87.9021  39.0089 0002176  85.8166 274.3213 13.15548272 64069
ONEWEB-0637             
1 56078U 23043AJ  24196.81651078  .00000054  00000+0  10985-3 0  9990
2 56078  87.9024  38.9870 0002201  88.3409 271.7973 13.15548272 64082
ONEWEB-0647             
1 56079U 23043AK  24196.81175208 -.00000219  00000+0 -61589-3 0  9998
2 56079  87.9022  39.0059 0002050  80.4122 279.7240 13.15549333 64072
ONEWEB-0651             
1 56080U 23043AL  24196.80700087 -.00000003  00000+0 -42623-4 0  9998
2 56080  87.9025  38.9844 0002175  91.6380 268.5000 13.15548247 65271
ONEWEB-0718             
1 56081U 23043AM  24196.80225838  .00000040  00000+0  72179-4 0  9993
2 56081  87.9024  38.9716 0001273  95.9094 264.2181 13.15548614 64085
ONEWEB-0561             
1 56710U 23068A   24196.62929586  .00000117  00000+0  25704-3 0  9996
2 56710  87.9203  54.2493 0002524  81.7152 278.4268 13.20771541 56766
